STARLINK-6115           
1 56123U 23046AH  23346.90982772  .00002248  00000+0  18141-3 0  9997
2 56123  43.0033 269.8229 0000695 264.5783  95.4980 15.02531903 39191
STARLINK-6126           
1 56124U 23046AJ  23346.92313775  .00001450  00000+0  12239-3 0  9997
2 56124  43.0044 269.9224 0000555 240.8892 119.1895 15.02536237 39197
STARLINK-6119           
1 56125U 23046AK  23346.24725280  .00001978  00000+0  16144-3 0  9995
2 56125  43.0039 273.4507 0000504 259.8388 100.2398 15.02544188 39092
STARLINK-6124           
1 56126U 23046AL  23346.90648408  .00001490  00000+0  12535-3 0  9994
2 56126  43.0038 269.7949 0000959 252.0316 108.0422 15.02539712 39192
STARLINK-6104           
1 56127U 23046AM  23346.89760358 -.00000623  00000+0 -31048-4 0  9992
2 56127  43.0041 269.7249 0001246 258.7154 101.3548 15.02538043 39194
STARLINK-6122           
1 56128U 23046AN  23346.84777784 -.00000282  00000+0 -57816-5 0  9992
2 56128  43.0029 270.2163 0000852 278.2232  81.8513 15.02536707 39187
STARLINK-6121           
1 56129U 23046AP  23346.90308755  .00000160  00000+0  26934-4 0  9997
2 56129  43.0024 217.8726 0001143 272.0606  88.0105 15.02534178 39799
STARLINK-6117           
1 56130U 23046AQ  23346.90315568  .00001585  00000+0  13233-3 0  9998
2 56130  43.0038 269.7703 0000875 244.0791 115.9961 15.02538981 39192
STARLINK-6120           
1 56131U 23046AR  23346.88872563  .00002027  00000+0  16507-3 0  9998
2 56131  43.0034 269.6585 0000987 261.1116  98.9614 15.02540005 39196
STARLINK-6071           
1 56132U 23046AS  23346.83334805  .00000943  00000+0  84836-4 0  9992
2 56132  43.0041 270.1046 0000785 232.7856 127.2915 15.02537358 39181
STARLINK-5566           
1 56133U 23046AT  23346.89094559  .00000959  00000+0  86059-4 0  9994
2 56133  43.0034 269.6775 0000746 234.4738 125.6035 15.02538054 39191
STARLINK-5564           
1 56134U 23046AU  23346.89427640  .00001167  00000+0  10142-3 0  9997
2 56134  43.0036 269.7034 0000981 258.4154 101.6579 15.02540188 39190
STARLINK-5563           
1 56135U 23046AV  23346.85075858  .00001757  00000+0  14510-3 0  9992
2 56135  43.0032 231.1593 0000947 261.6076  98.4659 15.02539828 39631
STARLINK-5489           
1 56136U 23046AW  23346.82557803  .00000695  00000+0  66475-4 0  9993
2 56136  43.0039 270.0437 0000813 250.0407 110.0348 15.02537866 39186
STARLINK-5090           
1 56137U 23046AX  23346.87096550  .00002271  00000+0  18308-3 0  9999
2 56137  43.0035 269.5236 0001002 249.0986 110.9750 15.02540544 39198
STARLINK-4774           
1 56138U 23046AY  23346.28709361  .00002169  00000+0  17555-3 0  9995
2 56138  43.0037 272.8860 0000974 262.2143  97.8589 15.02542162 39102
STARLINK-5378           
1 56139U 23046AZ  23346.87651468  .00001255  00000+0  10793-3 0  9997
2 56139  43.0042 269.5659 0000841 260.7989  99.2759 15.02538767 39192
STARLINK-5375           
1 56140U 23046BA  23346.28487502  .00002468  00000+0  19768-3 0  9998
2 56140  43.0041 272.8683 0000617 248.1140 111.9637 15.02541469 39108
STARLINK-5377           
1 56141U 23046BB  23346.27044358  .00002395  00000+0  19223-3 0  9991
2 56141  43.0042 272.7589 0000981 255.2288 104.8445 15.02543817 39107
STARLINK-5376           
1 56142U 23046BC  23346.87984589  .00001120  00000+0  97944-4 0  9999
2 56142  43.0035 269.5923 0000881 264.6282  95.4459 15.02537897 39193
STARLINK-5016           
1 56143U 23046BD  23346.86208519  .00000981  00000+0  87643-4 0  9990
2 56143  43.0036 269.4574 0001057 259.5551 100.5172 15.02539644 39196
STARLINK-5374           
1 56144U 23046BE  23346.27599430  .00002718  00000+0  21616-3 0  9998
2 56144  43.0037 272.8014 0000940 259.0237 101.0500 15.02544160 39102
STARLINK-5370           
1 56145U 23046BF  23346.84742612  .00000827  00000+0  76248-4 0  9995
2 56145  43.0035 231.1329 0001147 248.4769 111.5951 15.02537552 39631
STARLINK-5111           
1 56146U 23046BG  23346.86541525  .00001849  00000+0  15190-3 0  9991
2 56146  43.0041 269.4812 0001058 262.6258  97.4464 15.02541265 39190
STARLINK-5140           
1 56147U 23046BH  23346.90834946  .00000593  00000+0  58930-4 0  9994
2 56147  43.0035 230.7243 0000932 263.7897  96.2839 15.02542777 39646
STARLINK-5089           
1 56148U 23046BJ  23346.84520930  .00000811  00000+0  75077-4 0  9997
2 56148  43.0039 231.1126 0001108 261.8607  98.2110 15.02531918 39638
STARLINK-30107          
1 56287U 23056B   23346.42533894  .00006543  00000+0  49871-3 0  9999
2 56287  43.0042 336.6596 0000578 243.8162 116.2621 15.02557741 36989
STARLINK-30106          
1 56288U 23056C   23346.45852167  .00012972  00000+0  97267-3 0  9995
2 56288  43.0037 336.0694 0000710 249.9770 110.0996 15.02572154 36945
STARLINK-30095          
1 56289U 23056D   23346.35603453  .00003008  00000+0  23757-3 0  9990
2 56289  43.0041 310.8608 0000862 218.7323 141.3458 15.02547896 37229
STARLINK-30103          
1 56290U 23056E   23346.32223921  .00012395  00000+0  93021-3 0  9997
2 56290  43.0033 336.7677 0000841 264.2402  95.8344 15.02567384 36338
STARLINK-30113          
1 56291U 23056F   23346.32890198  .00011923  00000+0  89553-3 0  9995
2 56291  43.0039 336.8110 0000630 252.1600 107.9173 15.02563708 36331
STARLINK-30098          
1 56292U 23056G   23346.31890370  .00003296  00000+0  25889-3 0  9993
2 56292  43.0049 336.7330 0000416 260.8479  99.2316 15.02547971 36929
STARLINK-30090          
1 56293U 23056H   23346.30893802  .00007642  00000+0  59237-3 0  9999
2 56293  43.0038 337.5009 0000954 268.0587  92.0145 15.01744514 36918
STARLINK-30049          
1 56294U 23056J   23346.30903731  .00008998  00000+0  67984-3 0  9996
2 56294  43.0039 337.4429 0000908 271.6141  88.4597 15.02560375 36912
STARLINK-30083          
1 56295U 23056K   23346.36935054  .00003227  00000+0  25374-3 0  9993
2 56295  43.0046 310.9468 0000895 225.7973 134.2796 15.02549043 37223
STARLINK-30089          
1 56296U 23056L   23346.90143093  .00002141  00000+0  17349-3 0  9995
2 56296  43.0039 295.0213 0000603 239.9184 120.1599 15.02538192 37458
STARLINK-30086          
1 56297U 23056M   23346.42200080  .00007806  00000+0  59190-3 0  9996
2 56297  43.0045 336.5707 0000420 220.2943 139.7868 15.02560806 36932
STARLINK-30109          
1 56298U 23056N   23346.42866012  .00005329  00000+0  40907-3 0  9994
2 56298  43.0045 336.6224 0000397 212.9027 147.1791 15.02553713 36995
STARLINK-30108          
1 56299U 23056P   23346.39574542  .00001500  00000+0  12601-3 0  9992
2 56299  43.0041 324.2401 0000588 220.9313 139.1486 15.02552141 37134
STARLINK-30104          
1 56300U 23056Q   23346.44853485 -.00000792  00000+0 -43589-4 0  9991
2 56300  43.0033 335.9965 0000933 262.5633  97.5103 15.02539247 37004
STARLINK-30101          
1 56301U 23056R   23346.47851885  .00005693  00000+0  43611-3 0  9995
2 56301  43.0042 336.1991 0001146 262.5397  97.5315 15.02542623 37008
STARLINK-30111          
1 56302U 23056S   23345.34171650  .00001131  00000+0  98775-4 0  9991
2 56302  43.0053 342.2265 0000559 250.1848 109.8934 15.02539806 36174
STARLINK-30097          
1 56303U 23056T   23346.39652759  .00062665  00000+0  25456-2 0  9995
2 56303  43.0006 318.5703 0020181 132.3333 227.9230 15.23554774 37209
STARLINK-30099          
1 56304U 23056U   23346.46850272  .00017575  00000+0  13110-2 0  9998
2 56304  43.0038 336.0497 0001102 255.9181 104.1539 15.02589153 36343
STARLINK-30094          
1 56305U 23056V   23346.28419036  .00008085  00000+0  62573-3 0  9992
2 56305  43.0041 336.3902 0000503 195.2856 164.7971 15.01743982 36984
STARLINK-30112          
1 56306U 23056W   23346.47515824  .00005332  00000+0  40926-3 0  9996
2 56306  43.0048 336.1100 0000920 233.0976 126.9782 15.02554972 36358
STARLINK-6038           
1 56317U 23058A   23346.91913544  .00000275  00000+0  26034-4 0  9996
2 56317  97.6552 345.3515 0001131  87.6619 272.4735 15.01256646 35089
STARLINK-5954           
1 56318U 23058B   23346.91542265 -.00000704  00000+0 -50260-4 0  9992
2 56318  97.6551 345.3546 0000516 142.6455 217.4805 15.01258614 35083
STARLINK-6039           
1 56319U 23058C   23346.91357259  .00000140  00000+0  15478-4 0  9994
2 56319  97.6552 345.3567 0001118 170.5984 189.5261 15.01271139 35086
STARLINK-5988           
1 56320U 23058D   23346.91937314 -.00000050  00000+0  70273-6 0  9999
2 56320  97.6555 345.3492 0001584  79.7629 280.3774 15.01260891 35094
STARLINK-5876           
1 56321U 23058E   23346.90801306  .00207100  00000+0  15618-1 0  9991
2 56321  97.6542 345.3640 0002890 146.0484 214.0926 15.01362738 35089
STARLINK-6033           
1 56322U 23058F   23346.91726499  .00000888  00000+0  73683-4 0  9995
2 56322  97.6548 345.3524 0001064  70.2116 289.9223 15.01269738 35086
STARLINK-6035           
1 56323U 23058G   23346.90986675 -.00000747  00000+0 -53607-4 0  9999
2 56323  97.6556 345.3597 0001619 182.3965 177.7252 15.01258001 35075
STARLINK-6034           
1 56324U 23058H   23346.91171824 -.00000783  00000+0 -56411-4 0  9999
2 56324  97.6555 345.3582 0001529 186.1055 174.0151 15.01259321 35086
STARLINK-5981           
1 56325U 23058J   23346.90246113 -.00000692  00000+0 -49250-4 0  9995
2 56325  97.6566 345.3684 0001686 148.5500 211.5825 15.01262571 35438
STARLINK-5980           
1 56326U 23058K   23346.91196738  .00000237  00000+0  23074-4 0  9993
2 56326  97.6554 345.3580 0001446 182.0876 178.0343 15.01271594 35082
STARLINK-5997           
1 56327U 23058L   23346.89714707  .00000503  00000+0  43708-4 0  9995
2 56327  97.6579 345.3784 0000576 168.3865 191.7372 15.01263825 35435
STARLINK-5992           
1 56328U 23058M   23346.90431098  .00000418  00000+0  37123-4 0  9996
2 56328  97.6563 345.3665 0001674 141.6541 218.4802 15.01252914 35434
STARLINK-5984           
1 56329U 23058N   23346.90061068  .00000211  00000+0  20996-4 0  9994
2 56329  97.6568 345.3716 0002099 129.3536 230.7875 15.01259605 35437
